STARLINK-30316          
1 57673U 23124L   26068.69174551 -.00000728  00000+0 -12465-4 0  9990
2 57673  53.1610 207.0679 0001177  90.1891 269.9245 15.30184915143564
STARLINK-30494          
1 57970U 23151G   26068.36049035 -.00001272  00000+0 -35691-4 0  9993
2 57970  43.0027 192.4566 0001155 241.5536 118.5200 15.28417441137406
